[{"OBJECT_NAME":"STARLINK-6248","OBJECT_ID":"2023-088AL","EPOCH":"2026-03-09T22:00:01.999584","MEAN_MOTION":15.09413307,"ECCENTRICITY":0.00025129,"INCLINATION":43.0011,"RA_OF_ASC_NODE":93.3611,"ARG_OF_PERICENTER":254.998,"MEAN_ANOMALY":58.6757,"EPHEMERIS_TYPE":0,"CLASSIFICATION_TYPE":"U","NORAD_CAT_ID":57082,"ELEMENT_SET_NO":999,"REV_AT_EPOCH":577,"BSTAR":0.005988875,"MEAN_MOTION_DOT":0.00098558,"MEAN_MOTION_DDOT":0},{"OBJECT_NAME":"ICEYE-X38","OBJECT_ID":"2024-043C","EPOCH":"2026-03-09T22:31:51.164832","MEAN_MOTION":15.11764469,"ECCENTRICITY":0.00034523,"INCLINATION":97.8238,"RA_OF_ASC_NODE":210.1187,"ARG_OF_PERICENTER":76.8106,"MEAN_ANOMALY":283.3508,"EPHEMERIS_TYPE":0,"CLASSIFICATION_TYPE":"U","NORAD_CAT_ID":59100,"ELEMENT_SET_NO":999,"REV_AT_EPOCH":9667,"BSTAR":0.00052269951,"MEAN_MOTION_DOT":8.853e-5,"MEAN_MOTION_DDOT":0}]
